{"type": "FeatureCollection", "features": [{"type": "Feature", "properties": {"shapeID": "46179711B72666466596415", "shapeName": "North Sinai Governorate"}, "geometry": {"type": "MultiPolygon", "coordinates": [[[[32.64078, 31.05582], [32.75845, 31.07318], [32.81828, 31.09361], [32.92244, 31.14976], [32.92615, 31.135], [32.92032, 31.13994], [32.8017, 31.08453], [32.67094, 31.04719], [32.67757, 31.04324], [32.7102, 31.05086], [32.71673, 31.04851], [32.71638, 31.03718], [32.70042, 31.03218], [32.72437, 31.02874], [32.74436, 31.04439], [32.78909, 31.04418], [32.81904, 31.06821], [32.86958, 31.09038], [32.93319, 31.0838], [32.94263, 31.09776], [32.97623, 31.08245], [32.98379, 31.08569], [32.9843, 31.07848], [32.97194, 31.07819], [32.97795, 31.07495], [32.97246, 31.07113], [32.97697, 31.06037], [32.95961, 31.0573], [33.00802, 31.04938], [33.02666, 31.06412], [33.01767, 31.07007], [33.00902, 31.06687], [33.01218, 31.07949], [33.0267, 31.08789], [33.05484, 31.09093], [33.04666, 31.09544], [33.05184, 31.10975], [33.06467, 31.11294], [33.06344, 31.12067], [33.02962, 31.11185], [33.02329, 31.08791], [32.98276, 31.09362], [32.974, 31.08863], [32.95516, 31.09997], [32.98984, 31.10511], [33.02656, 31.15144], [33.09266, 31.18122], [33.10777, 31.17461], [33.12597, 31.14273], [33.14348, 31.13083], [33.15051, 31.12084], [33.14124, 31.12922], [33.1179, 31.13215], [33.1155, 31.14259], [33.11344, 31.13509], [33.10537, 31.13421], [33.10571, 31.12466], [33.09799, 31.12569], [33.11618, 31.11379], [33.0949, 31.10967], [33.12219, 31.10761], [33.11721, 31.10232], [33.1215, 31.09247], [33.14828, 31.07924], [33.1433, 31.07542], [33.14931, 31.06469], [33.14039, 31.04174], [33.16013, 31.0416], [33.19421, 31.05887], [33.22112, 31.05887], [33.21693, 31.06556], [33.19679, 31.06309], [33.19956, 31.06933], [33.23257, 31.07263], [33.36921, 31.11158], [33.45955, 31.07911], [33.47307, 31.13054], [33.48528, 31.12768], [33.47083, 31.14053], [33.40457, 31.17329], [33.40371, 31.16815], [33.3311, 31.19532], [33.2752, 31.204], [33.2697, 31.20829], [33.27345, 31.21478], [33.2726, 31.21035], [33.29097, 31.20446], [33.3932, 31.18225], [33.45491, 31.15235], [33.50491, 31.12124], [33.58303, 31.11335], [33.67952, 31.11868], [33.76674, 31.13482], [33.83345, 31.15862], [33.82935, 31.15075], [33.87119, 31.15944], [33.98916, 31.19833], [34.1256, 31.26223], [34.2188, 31.32358], [34.24007, 31.29578], [34.40343, 30.85831], [34.4964, 30.68085], [34.4928, 30.67613], [34.51897, 30.60333], [34.51557, 30.53363], [34.55372, 30.49791], [34.53585, 30.43102], [34.54225, 30.42682], [34.54268, 30.41304], [34.61391, 30.36807], [34.80134, 29.87243], [34.82361, 29.83035], [34.82601, 29.8086], [34.83319, 29.80695], [34.83204, 29.79469], [34.84379, 29.77919], [34.85819, 29.68585], [34.88025, 29.64869], [34.86641, 29.59761], [34.87609, 29.55888], [34.84177, 29.56085], [34.69115, 29.53447], [34.47061, 29.55443], [34.33443, 29.59353], [33.7219, 29.833], [33.47819, 29.87363], [32.83298, 29.92325], [32.80426, 29.9948], [32.80674, 30.19257], [32.78179, 30.25689], [32.77824, 30.28135], [32.74938, 30.35953], [32.64918, 30.47456], [32.62936, 30.51391], [32.59398, 30.947], [32.57354, 31.05256], [32.57797, 31.06576], [32.64078, 31.05582]]], [[[32.92815, 31.14234], [33.07601, 31.2195], [33.10172, 31.22732], [33.17836, 31.22901], [33.2712, 31.21789], [33.2616, 31.20948], [33.18532, 31.22612], [33.1115, 31.22554], [33.08386, 31.21834], [33.09554, 31.20997], [33.09004, 31.20719], [33.06017, 31.20381], [32.94791, 31.15211], [32.93662, 31.14027], [32.92815, 31.14234]]]]}}, {"type": "Feature", "properties": {"shapeID": "46179711B69358139854301", "shapeName": "South Sinai Governorate"}, "geometry": {"type": "MultiPolygon", "coordinates": [[[[33.47819, 29.87363], [33.7219, 29.833], [34.33443, 29.59353], [34.47061, 29.55443], [34.69115, 29.53447], [34.84177, 29.56085], [34.87609, 29.55888], [34.90271, 29.49062], [34.88295, 29.48807], [34.85907, 29.47217], [34.85266, 29.44562], [34.84217, 29.43262], [34.82779, 29.43148], [34.83287, 29.42292], [34.81635, 29.41127], [34.8172, 29.40002], [34.80912, 29.40006], [34.81098, 29.38944], [34.80355, 29.37606], [34.78653, 29.37088], [34.77835, 29.34023], [34.76395, 29.33754], [34.75266, 29.31713], [34.74256, 29.31269], [34.7429, 29.26724], [34.73345, 29.25346], [34.74076, 29.22771], [34.73848, 29.20912], [34.7187, 29.17244], [34.69841, 29.16841], [34.69099, 29.15979], [34.68694, 29.12536], [34.6752, 29.10622], [34.68076, 29.09715], [34.67139, 29.07875], [34.67293, 29.05533], [34.6638, 29.04527], [34.68475, 29.01271], [34.68691, 28.9843], [34.68238, 28.97711], [34.65282, 28.96968], [34.63944, 28.95], [34.64881, 28.92909], [34.64394, 28.91655], [34.64838, 28.86506], [34.64575, 28.85557], [34.63108, 28.85164], [34.62089, 28.83608], [34.6278, 28.7682], [34.62025, 28.74386], [34.62698, 28.73069], [34.5873, 28.67109], [34.586, 28.65963], [34.5749, 28.65159], [34.5805, 28.63956], [34.57385, 28.63297], [34.57547, 28.62382], [34.55187, 28.61093], [34.54482, 28.58109], [34.51909, 28.55301], [34.51171, 28.51789], [34.52092, 28.50046], [34.51205, 28.47752], [34.50759, 28.47048], [34.5002, 28.4725], [34.49764, 28.47487], [34.50685, 28.47855], [34.48695, 28.47772], [34.47307, 28.46056], [34.47018, 28.44376], [34.45619, 28.43442], [34.44162, 28.35918], [34.42146, 28.34328], [34.40967, 28.32021], [34.40805, 28.27066], [34.41664, 28.2451], [34.41061, 28.23337], [34.42258, 28.21101], [34.41807, 28.20817], [34.42481, 28.20909], [34.42406, 28.19923], [34.43996, 28.19372], [34.44953, 28.1726], [34.44976, 28.15442], [34.44027, 28.14038], [34.44322, 28.11653], [34.42747, 28.08293], [34.43084, 28.06808], [34.43907, 28.06449], [34.43666, 28.03995], [34.44245, 28.02702], [34.43238, 27.98653], [34.42468, 27.98374], [34.42736, 27.97458], [34.41726, 27.96445], [34.4016, 27.96286], [34.38441, 27.9513], [34.38693, 27.9405], [34.36936, 27.93213], [34.36643, 27.91581], [34.35447, 27.9167], [34.34626, 27.90877], [34.33433, 27.91493], [34.3283, 27.91178], [34.33015, 27.88596], [34.32126, 27.88106], [34.3243, 27.8679], [34.31663, 27.8483], [34.30303, 27.84748], [34.29443, 27.86217], [34.28966, 27.86148], [34.29461, 27.85704], [34.28851, 27.84839], [34.28562, 27.8572], [34.27286, 27.85361], [34.27686, 27.84009], [34.26991, 27.82563], [34.26329, 27.82441], [34.26901, 27.81624], [34.25785, 27.78845], [34.24008, 27.78622], [34.23359, 27.79485], [34.21979, 27.78833], [34.21424, 27.79566], [34.20548, 27.78872], [34.2234, 27.76225], [34.25575, 27.76565], [34.2509, 27.75295], [34.26072, 27.73198], [34.25741, 27.7276], [34.24702, 27.7337], [34.25105, 27.72414], [34.24034, 27.73679], [34.23244, 27.73723], [34.2138, 27.76271], [34.18701, 27.78422], [34.15856, 27.78073], [34.1376, 27.79443], [34.11242, 27.79515], [34.09196, 27.78672], [34.08558, 27.79648], [34.04887, 27.8145], [33.99563, 27.86674], [33.98575, 27.88369], [33.96459, 27.89145], [33.95245, 27.88641], [33.91367, 27.93654], [33.8796, 27.9306], [33.86097, 27.95366], [33.80349, 27.98709], [33.7901, 28.00858], [33.76357, 28.0174], [33.75938, 28.02642], [33.76634, 28.03775], [33.75994, 28.04841], [33.70881, 28.07063], [33.71361, 28.08172], [33.69292, 28.1038], [33.68347, 28.12612], [33.67037, 28.13302], [33.66673, 28.16308], [33.65242, 28.16608], [33.64936, 28.16085], [33.64891, 28.16882], [33.62837, 28.18044], [33.62306, 28.22747], [33.61578, 28.23858], [33.60665, 28.23842], [33.6089, 28.22896], [33.59315, 28.24413], [33.58683, 28.26886], [33.57566, 28.27318], [33.5673, 28.29338], [33.55101, 28.29784], [33.53502, 28.31219], [33.50595, 28.32007], [33.48917, 28.33769], [33.43317, 28.36477], [33.40461, 28.38923], [33.40104, 28.40295], [33.37327, 28.428], [33.3645, 28.45492], [33.30678, 28.48899], [33.28385, 28.51301], [33.2791, 28.52989], [33.25905, 28.54241], [33.2584, 28.54831], [33.27091, 28.55014], [33.26959, 28.5641], [33.25764, 28.58148], [33.23459, 28.57905], [33.24286, 28.55677], [33.2543, 28.54954], [33.24172, 28.55514], [33.22332, 28.58914], [33.21943, 28.61804], [33.20647, 28.62014], [33.21809, 28.61838], [33.22274, 28.62887], [33.19835, 28.6707], [33.20893, 28.71564], [33.2178, 28.72546], [33.23113, 28.76857], [33.21727, 28.78453], [33.21029, 28.80666], [33.18487, 28.82385], [33.17535, 28.84847], [33.17249, 28.86751], [33.18046, 28.88651], [33.17399, 28.89714], [33.18869, 28.9197], [33.17007, 28.94506], [33.17094, 28.97443], [33.18123, 29.00023], [33.15918, 29.00938], [33.15371, 29.02263], [33.12835, 29.03334], [33.12255, 29.04411], [33.09781, 29.04737], [33.09644, 29.0573], [33.07651, 29.06696], [33.07781, 29.08537], [33.03, 29.13175], [33.01666, 29.13584], [33.00363, 29.15755], [32.97645, 29.16721], [32.95134, 29.20307], [32.9261, 29.2051], [32.88459, 29.23393], [32.87516, 29.25707], [32.88116, 29.26945], [32.86897, 29.28963], [32.8304, 29.31487], [32.82919, 29.34371], [32.81546, 29.35684], [32.82607, 29.38423], [32.81873, 29.40348], [32.80178, 29.41156], [32.78433, 29.43213], [32.74405, 29.44599], [32.75162, 29.44397], [32.74587, 29.44825], [32.75213, 29.45113], [32.74083, 29.46639], [32.73622, 29.45506], [32.74079, 29.47228], [32.73479, 29.47809], [32.72051, 29.45124], [32.73215, 29.44738], [32.71751, 29.44738], [32.73636, 29.48981], [32.71964, 29.5074], [32.72643, 29.55013], [32.7167, 29.56032], [32.71089, 29.5845], [32.67902, 29.59921], [32.69123, 29.61656], [32.68051, 29.65786], [32.69019, 29.68057], [32.68746, 29.69352], [32.69688, 29.71018], [32.69655, 29.72871], [32.6823, 29.75235], [32.66634, 29.75825], [32.63224, 29.80714], [32.80033, 29.89728], [32.83298, 29.92325], [33.47819, 29.87363]]], [[[34.69645, 27.93064], [34.68252, 27.94372], [34.67054, 27.94188], [34.66919, 27.92157], [34.65193, 27.92467], [34.66814, 27.93697], [34.65754, 27.94141], [34.65893, 27.94693], [34.69127, 27.95913], [34.71706, 27.95413], [34.71901, 27.94518], [34.72442, 27.94734], [34.72448, 27.94035], [34.73566, 27.93496], [34.73993, 27.92169], [34.70712, 27.90317], [34.69141, 27.92131], [34.69645, 27.93064]]], [[[34.54956, 27.96257], [34.5696, 27.97041], [34.58925, 27.96893], [34.58442, 27.95719], [34.58944, 27.94694], [34.61907, 27.93296], [34.62241, 27.92174], [34.59439, 27.91262], [34.55461, 27.91151], [34.53216, 27.92566], [34.5268, 27.93758], [34.5029, 27.94483], [34.50535, 27.9582], [34.49441, 28.0008], [34.504, 28.00054], [34.51619, 28.01425], [34.53931, 28.01241], [34.55238, 27.99893], [34.54765, 27.99078], [34.53912, 27.99413], [34.51461, 27.98349], [34.50245, 27.99236], [34.50321, 27.98099], [34.5233, 27.96696], [34.54956, 27.96257]]]]}}, {"type": "Feature", "properties": {"shapeID": "46179711B96058986091554", "shapeName": "Aswan Governorate"}, "geometry": {"type": "Polygon", "coordinates": [[[32.67243, 25.11014], [32.69682, 25.17703], [32.64732, 25.21014], [32.67314, 25.27114], [32.6851, 25.33695], [33.46913, 25.33621], [33.41306, 22.0], [31.39888, 22.0], [31.43386, 22.08561], [31.50618, 22.18523], [31.4698, 22.22492], [31.41875, 22.18956], [31.36502, 22.13155], [31.33843, 22.08085], [31.31503, 22.0], [31.09815, 22.0], [32.67243, 25.11014]]]}}, {"type": "Feature", "properties": {"shapeID": "46179711B94144647788557", "shapeName": "Red Sea Governorate"}, "geometry": {"type": "MultiPolygon", "coordinates": [[[[33.46913, 25.33621], [33.46777, 25.56188], [33.39137, 25.62288], [33.36269, 25.65735], [33.35314, 25.72134], [33.42688, 25.87503], [33.56344, 26.03834], [33.56617, 26.08741], [33.34358, 26.544], [33.21794, 26.49635], [32.94208, 26.7454], [32.85331, 26.79783], [32.79869, 26.80027], [32.79322, 26.96714], [32.66759, 27.31835], [32.67305, 27.36566], [32.74406, 27.50141], [32.75362, 27.55712], [32.6949, 27.79657], [32.65393, 27.90283], [32.57472, 28.07768], [32.50098, 28.16561], [32.40675, 28.25947], [32.32071, 28.30277], [32.26609, 28.3208], [32.20463, 28.3208], [32.04076, 28.27872], [31.90692, 28.2691], [31.89054, 28.31239], [31.8045, 28.42774], [31.78811, 28.53697], [31.87278, 28.62332], [31.8564, 28.68324], [31.85776, 28.72995], [31.91648, 28.81614], [31.92468, 28.8604], [31.96155, 28.93931], [31.97111, 28.98949], [32.12035, 28.99874], [32.45929, 29.09497], [32.51723, 29.12619], [32.5771, 29.13716], [32.62925, 29.1245], [32.65386, 29.12658], [32.66627, 29.11216], [32.65429, 29.07567], [32.6234, 29.05435], [32.63079, 29.03687], [32.6256, 29.02256], [32.62963, 29.01411], [32.62277, 29.00978], [32.62039, 28.99565], [32.62223, 28.97931], [32.66376, 28.93426], [32.68779, 28.87045], [32.72366, 28.84352], [32.74808, 28.80538], [32.78634, 28.7938], [32.80761, 28.77266], [32.83231, 28.72944], [32.8288, 28.71026], [32.84436, 28.67965], [32.84272, 28.66317], [32.85657, 28.64306], [32.86601, 28.57341], [32.92955, 28.55193], [32.95348, 28.52124], [32.96786, 28.51667], [32.96347, 28.50882], [32.97227, 28.50518], [32.97227, 28.49734], [32.99836, 28.48947], [33.00526, 28.47178], [33.0215, 28.46371], [33.05705, 28.39346], [33.08397, 28.36566], [33.10915, 28.35668], [33.11315, 28.31691], [33.12472, 28.30546], [33.1258, 28.29141], [33.15173, 28.27919], [33.16276, 28.24699], [33.18092, 28.23185], [33.18491, 28.21878], [33.19907, 28.21294], [33.24252, 28.17025], [33.24295, 28.14507], [33.27894, 28.13786], [33.29797, 28.11221], [33.33687, 28.084], [33.33374, 28.06811], [33.33988, 28.05372], [33.36562, 28.04844], [33.37548, 28.0318], [33.41574, 28.03261], [33.42109, 28.02303], [33.4782, 27.99061], [33.53159, 27.9295], [33.5435, 27.90403], [33.55689, 27.89326], [33.56268, 27.86686], [33.58453, 27.84734], [33.58063, 27.81384], [33.5885, 27.79415], [33.57542, 27.78775], [33.55714, 27.81647], [33.55229, 27.81044], [33.54083, 27.8117], [33.53284, 27.81917], [33.52359, 27.81807], [33.5259, 27.82526], [33.4778, 27.83483], [33.46943, 27.80878], [33.4964, 27.79019], [33.50229, 27.76918], [33.51144, 27.76683], [33.51977, 27.75007], [33.55545, 27.7613], [33.55944, 27.75451], [33.53797, 27.70542], [33.5463, 27.70162], [33.54721, 27.68568], [33.5771, 27.67943], [33.5828, 27.65887], [33.59421, 27.65045], [33.58815, 27.64149], [33.57873, 27.66032], [33.55862, 27.6778], [33.55527, 27.66875], [33.56206, 27.65752], [33.55192, 27.65797], [33.54114, 27.67681], [33.5262, 27.67916], [33.49885, 27.65679], [33.49475, 27.64211], [33.51316, 27.63804], [33.55911, 27.58815], [33.55999, 27.5701], [33.56618, 27.56321], [33.55561, 27.53855], [33.55954, 27.52551], [33.59022, 27.52064], [33.60359, 27.49976], [33.6207, 27.49678], [33.63556, 27.45519], [33.67816, 27.41711], [33.67242, 27.41299], [33.68655, 27.39876], [33.68065, 27.37403], [33.68492, 27.35648], [33.69453, 27.35128], [33.69548, 27.33414], [33.70817, 27.3285], [33.72281, 27.30781], [33.74831, 27.30488], [33.75498, 27.29375], [33.78494, 27.27349], [33.80858, 27.26225], [33.81492, 27.26601], [33.83186, 27.26018], [33.84306, 27.24573], [33.84886, 27.24806], [33.84433, 27.2441], [33.84904, 27.24391], [33.84908, 27.23496], [33.84095, 27.22397], [33.85212, 27.20082], [33.82708, 27.17766], [33.8326, 27.15425], [33.83023, 27.10313], [33.84747, 27.09996], [33.8579, 27.08498], [33.86689, 27.08769], [33.88009, 27.08101], [33.89901, 27.06059], [33.90634, 27.04474], [33.89327, 27.04764], [33.88361, 27.03746], [33.90138, 27.01076], [33.91079, 27.00651], [33.90976, 26.99848], [33.89887, 26.99332], [33.91979, 26.97978], [33.92038, 26.96603], [33.9359, 26.93678], [33.96166, 26.91067], [33.96897, 26.89066], [33.98356, 26.90086], [33.99626, 26.90062], [33.98864, 26.87699], [34.00364, 26.8533], [33.99541, 26.83895], [33.99606, 26.84418], [33.96636, 26.86244], [33.95193, 26.84479], [33.95577, 26.8362], [33.94348, 26.82892], [33.94876, 26.80571], [33.93641, 26.79271], [33.93702, 26.78149], [33.94283, 26.76708], [33.96068, 26.75051], [33.94124, 26.74005], [33.93567, 26.66833], [33.9473, 26.65249], [33.99005, 26.63492], [34.01818, 26.61014], [34.03668, 26.55512], [34.07014, 26.51275], [34.06669, 26.50817], [34.08143, 26.47972], [34.08331, 26.45887], [34.10757, 26.41214], [34.1175, 26.39801], [34.12771, 26.39584], [34.13553, 26.37292], [34.18363, 26.31982], [34.18817, 26.27805], [34.20386, 26.26077], [34.20128, 26.25248], [34.2095, 26.24449], [34.21681, 26.21235], [34.24014, 26.17781], [34.24493, 26.15557], [34.26311, 26.14642], [34.27074, 26.12628], [34.28662, 26.11597], [34.28308, 26.09778], [34.31346, 26.06475], [34.32437, 26.02243], [34.34317, 25.98689], [34.37686, 25.963], [34.38791, 25.9408], [34.39642, 25.93769], [34.42021, 25.87285], [34.41293, 25.8666], [34.42094, 25.86612], [34.43342, 25.83714], [34.45516, 25.83473], [34.46988, 25.82478], [34.48714, 25.78417], [34.54131, 25.74619], [34.54533, 25.72625], [34.56438, 25.70041], [34.56324, 25.67706], [34.58234, 25.66192], [34.57936, 25.65401], [34.59178, 25.62367], [34.5873, 25.62073], [34.59458, 25.62181], [34.60708, 25.60563], [34.60414, 25.60157], [34.62134, 25.5948], [34.63673, 25.57422], [34.642, 25.53551], [34.62786, 25.53062], [34.64206, 25.53076], [34.65118, 25.5067], [34.66483, 25.50132], [34.6764, 25.48533], [34.67797, 25.4637], [34.69089, 25.44679], [34.69848, 25.4031], [34.72988, 25.3714], [34.75183, 25.30032], [34.79092, 25.25751], [34.8011, 25.21617], [34.81147, 25.20858], [34.80705, 25.20484], [34.81396, 25.20597], [34.85086, 25.16574], [34.88311, 25.08657], [34.90175, 25.0704], [34.92576, 25.01281], [34.94484, 24.99644], [34.94728, 24.98237], [34.93632, 24.9596], [34.98684, 24.89478], [34.99328, 24.83051], [35.07087, 24.75381], [35.0895, 24.712], [35.08627, 24.67781], [35.09281, 24.66826], [35.1092, 24.66413], [35.09851, 24.64249], [35.11883, 24.61634], [35.11221, 24.60946], [35.12945, 24.61015], [35.14405, 24.58033], [35.16595, 24.56494], [35.14559, 24.55419], [35.14835, 24.53685], [35.13729, 24.52564], [35.13743, 24.51265], [35.16852, 24.48127], [35.19092, 24.47186], [35.23565, 24.39977], [35.26016, 24.3897], [35.26892, 24.37336], [35.29703, 24.35892], [35.31861, 24.36052], [35.32299, 24.34089], [35.33707, 24.33345], [35.34042, 24.32316], [35.35681, 24.31751], [35.4072, 24.25405], [35.41583, 24.22472], [35.42329, 24.22283], [35.43253, 24.20712], [35.42478, 24.1958], [35.43114, 24.18601], [35.46294, 24.14784], [35.49341, 24.12798], [35.49019, 24.11589], [35.49553, 24.10811], [35.51218, 24.11314], [35.50682, 24.12537], [35.49063, 24.13629], [35.50302, 24.13936], [35.52228, 24.11887], [35.55565, 24.10832], [35.58816, 24.07863], [35.60056, 24.04464], [35.60091, 24.01579], [35.63699, 24.00029], [35.66477, 24.00607], [35.72075, 23.99113], [35.75949, 23.96264], [35.77298, 23.92462], [35.79318, 23.90842], [35.7859, 23.89433], [35.78319, 23.90851], [35.75196, 23.93835], [35.72378, 23.93235], [35.69106, 23.90921], [35.64163, 23.93064], [35.60895, 23.92653], [35.58831, 23.93133], [35.56107, 23.95625], [35.51002, 23.92609], [35.52126, 23.94129], [35.55831, 23.95834], [35.55502, 23.96487], [35.51364, 23.97775], [35.49899, 23.97439], [35.49431, 23.95826], [35.49838, 23.9532], [35.4903, 23.93824], [35.48146, 23.94299], [35.48642, 23.93736], [35.48236, 23.92731], [35.47327, 23.93083], [35.47521, 23.91718], [35.48236, 23.91981], [35.47427, 23.90645], [35.4838, 23.9065], [35.48628, 23.8787], [35.48097, 23.87081], [35.48673, 23.87761], [35.48817, 23.86838], [35.48713, 23.84132], [35.47695, 23.84415], [35.4831, 23.8158], [35.47367, 23.80627], [35.47313, 23.78204], [35.48767, 23.78547], [35.48137, 23.77191], [35.48504, 23.76844], [35.50237, 23.78611], [35.51235, 23.7739], [35.50887, 23.7525], [35.50217, 23.76481], [35.48464, 23.75503], [35.50118, 23.74256], [35.51222, 23.68149], [35.50969, 23.63279], [35.50081, 23.63347], [35.49436, 23.65039], [35.48722, 23.64608], [35.48824, 23.62665], [35.49275, 23.62302], [35.49586, 23.62872], [35.50208, 23.59561], [35.49566, 23.58887], [35.49075, 23.60056], [35.4884, 23.58599], [35.4941, 23.58436], [35.50097, 23.5927], [35.50687, 23.58719], [35.48996, 23.50194], [35.48437, 23.50058], [35.48345, 23.50768], [35.4809, 23.50369], [35.49327, 23.46807], [35.53149, 23.42662], [35.55123, 23.37138], [35.55086, 23.31567], [35.56907, 23.25913], [35.57074, 23.21235], [35.58776, 23.20068], [35.59478, 23.18116], [35.62549, 23.14141], [35.62728, 23.1226], [35.63883, 23.11403], [35.65723, 23.06703], [35.6597, 23.00165], [35.6738, 22.97002], [35.66107, 22.97255], [35.6628, 22.95451], [35.67129, 22.94794], [35.66651, 22.94519], [35.68379, 22.94824], [35.69486, 22.91821], [35.71157, 22.90635], [35.72907, 22.87981], [35.7265, 22.89015], [35.75841, 22.84689], [35.76225, 22.85197], [35.75477, 22.8732], [35.77627, 22.879], [35.78692, 22.85], [35.78084, 22.8447], [35.78277, 22.85084], [35.77345, 22.86335], [35.77808, 22.85221], [35.77127, 22.83792], [35.76473, 22.84421], [35.76796, 22.83901], [35.79185, 22.8265], [35.79257, 22.83446], [35.78677, 22.83611], [35.78721, 22.83019], [35.78398, 22.83513], [35.79114, 22.84607], [35.80778, 22.81825], [35.80102, 22.81348], [35.84846, 22.75965], [35.88736, 22.73657], [35.89059, 22.73188], [35.88236, 22.73615], [35.87977, 22.73182], [35.90525, 22.71721], [35.89392, 22.71896], [35.89603, 22.71378], [35.92671, 22.7091], [35.91859, 22.69253], [35.92996, 22.69232], [35.93563, 22.71138], [35.9429, 22.70803], [35.94344, 22.68757], [35.96817, 22.70319], [35.97099, 22.69247], [36.0312, 22.68453], [36.04136, 22.67649], [36.04205, 22.6828], [36.05507, 22.68317], [36.09699, 22.66696], [36.14267, 22.66997], [36.15422, 22.66079], [36.17966, 22.66368], [36.18804, 22.66074], [36.19872, 22.63983], [36.23212, 22.63244], [36.2455, 22.61479], [36.25827, 22.6136], [36.26111, 22.59589], [36.27454, 22.58943], [36.28582, 22.57213], [36.29719, 22.5147], [36.30909, 22.49354], [36.37928, 22.44156], [36.41793, 22.43202], [36.42431, 22.42389], [36.42495, 22.38918], [36.44565, 22.354], [36.5759, 22.29193], [36.59645, 22.27062], [36.61489, 22.26495], [36.60975, 22.26296], [36.62305, 22.24774], [36.64418, 22.2403], [36.65173, 22.22081], [36.67967, 22.20311], [36.67544, 22.20034], [36.69423, 22.19583], [36.7088, 22.17403], [36.72641, 22.16634], [36.72142, 22.16336], [36.75857, 22.1592], [36.77109, 22.17144], [36.79476, 22.15092], [36.79872, 22.12468], [36.82703, 22.10889], [36.84202, 22.08595], [36.89229, 22.06628], [36.89457, 22.05241], [36.89318, 22.0246], [36.88045, 22.0], [33.41306, 22.0], [33.46913, 25.33621]]], [[[36.6308, 22.26624], [36.6471, 22.28533], [36.65175, 22.27864], [36.64397, 22.27505], [36.66471, 22.26364], [36.66573, 22.25374], [36.66149, 22.24488], [36.66114, 22.25486], [36.64889, 22.2593], [36.63221, 22.24825], [36.6308, 22.26624]]], [[[36.18483, 23.59751], [36.18704, 23.62581], [36.21479, 23.60726], [36.18483, 23.59751]]], [[[35.7537, 22.89585], [35.7415, 22.90327], [35.74531, 22.91362], [35.75576, 22.90842], [35.76583, 22.89153], [35.76282, 22.88], [35.75283, 22.87336], [35.7537, 22.89585]]], [[[35.73129, 22.90653], [35.73142, 22.91296], [35.71803, 22.91036], [35.73516, 22.91958], [35.7404, 22.9038], [35.73129, 22.90653]]], [[[35.14925, 24.67747], [35.16064, 24.6744], [35.17456, 24.6532], [35.15734, 24.66353], [35.14925, 24.67747]]], [[[34.0386, 27.45746], [34.03465, 27.44799], [34.02407, 27.44657], [34.01429, 27.46614], [33.9985, 27.47167], [33.97949, 27.49265], [33.96006, 27.49419], [33.9441, 27.50635], [33.93017, 27.50451], [33.91505, 27.5231], [33.92187, 27.5231], [33.92976, 27.53807], [33.96147, 27.53617], [33.97923, 27.51903], [34.01965, 27.50151], [34.0386, 27.45746]]], [[[33.97842, 26.74852], [33.96748, 26.74976], [33.96092, 26.76476], [33.97012, 26.7789], [33.9826, 26.76554], [33.99179, 26.76917], [33.99572, 26.76339], [33.99262, 26.74759], [33.99958, 26.72772], [33.99459, 26.70379], [33.97842, 26.74852]]], [[[33.98419, 27.18985], [33.97186, 27.18673], [33.96767, 27.20325], [33.97361, 27.21093], [33.98419, 27.18985]]], [[[33.94335, 27.20476], [33.92509, 27.20814], [33.89467, 27.24295], [33.89459, 27.24732], [33.90683, 27.2462], [33.90279, 27.25867], [33.90726, 27.26755], [33.92835, 27.25115], [33.92859, 27.23538], [33.96231, 27.18454], [33.9501, 27.18136], [33.94335, 27.20476]]], [[[33.87524, 27.22212], [33.88536, 27.21743], [33.86995, 27.20528], [33.87524, 27.22212]]], [[[33.79523, 27.62777], [33.78387, 27.6503], [33.78461, 27.65841], [33.79411, 27.66443], [33.81529, 27.64763], [33.81619, 27.63252], [33.80855, 27.61864], [33.79523, 27.62777]]], [[[33.79276, 27.68066], [33.80784, 27.68218], [33.7958, 27.66795], [33.78429, 27.66727], [33.79276, 27.68066]]], [[[33.74035, 27.58787], [33.7573, 27.62292], [33.76723, 27.62694], [33.77727, 27.61752], [33.77281, 27.60034], [33.77736, 27.59339], [33.80264, 27.57994], [33.80038, 27.57307], [33.77614, 27.56074], [33.78242, 27.54655], [33.77954, 27.55685], [33.79009, 27.55697], [33.78732, 27.54479], [33.77991, 27.54429], [33.76436, 27.56094], [33.77866, 27.57117], [33.74035, 27.58787]]], [[[33.71032, 27.67575], [33.70765, 27.6795], [33.72076, 27.68128], [33.72628, 27.70339], [33.73707, 27.70634], [33.73912, 27.67522], [33.72798, 27.67567], [33.7048, 27.65052], [33.69775, 27.68012], [33.71032, 27.67575]]], [[[33.68639, 27.71366], [33.69445, 27.68368], [33.67925, 27.69527], [33.66891, 27.71457], [33.67408, 27.72049], [33.68639, 27.71366]]], [[[33.66366, 27.64586], [33.67653, 27.63992], [33.67253, 27.63224], [33.66366, 27.64586]]], [[[33.62868, 27.68254], [33.63887, 27.65197], [33.62829, 27.66194], [33.6242, 27.66875], [33.62868, 27.68254]]], [[[33.60282, 27.76794], [33.6072, 27.75542], [33.58325, 27.7739], [33.59747, 27.78691], [33.61121, 27.76721], [33.60282, 27.76794]]]]}}, {"type": "Feature", "properties": {"shapeID": "46179711B33216026370082", "shapeName": "Matrouh Governorate"}, "geometry": {"type": "MultiPolygon", "coordinates": [[[[29.59224, 30.99072], [29.60324, 30.75282], [29.61687, 30.26265], [30.31119, 29.92029], [29.57035, 29.55596], [28.72927, 28.81966], [27.78564, 28.63545], [27.31059, 27.738], [25.00019, 27.74891], [24.99778, 29.24889], [24.8775, 29.50639], [24.88139, 29.575], [24.89083, 29.61778], [24.88694, 29.66389], [24.8125, 29.78444], [24.83444, 29.84611], [24.83472, 29.87667], [24.80833, 29.95056], [24.74278, 30.095], [24.71028, 30.14028], [24.70667, 30.16861], [24.71944, 30.21806], [24.76278, 30.28139], [24.78083, 30.33389], [24.84889, 30.39278], [24.92611, 30.50611], [24.94028, 30.57222], [24.97694, 30.63472], [24.98167, 30.69222], [25.01917, 30.7875], [24.95667, 30.91667], [24.93694, 30.97667], [24.91167, 31.015], [24.86944, 31.15639], [24.88417, 31.23], [24.87056, 31.3], [24.86833, 31.375], [24.89778, 31.40611], [24.93408, 31.42273], [24.93931, 31.46856], [24.98114, 31.49998], [25.07628, 31.55114], [25.07591, 31.59919], [25.08961, 31.62374], [25.13408, 31.67009], [25.14645, 31.6762], [25.14209, 31.67122], [25.1483, 31.6706], [25.14435, 31.64108], [25.15445, 31.62684], [25.15059, 31.61581], [25.17997, 31.57027], [25.15987, 31.55947], [25.1684, 31.5396], [25.20822, 31.52121], [25.28896, 31.50571], [25.39853, 31.50328], [25.46042, 31.51728], [25.49701, 31.51835], [25.81156, 31.61255], [25.90692, 31.62806], [26.08003, 31.59574], [26.31783, 31.52974], [26.44762, 31.51133], [26.49573, 31.49508], [26.5575, 31.50572], [26.56205, 31.49622], [26.58699, 31.48885], [26.75204, 31.48362], [26.77787, 31.47235], [26.786, 31.46053], [26.83643, 31.44196], [26.9834, 31.4422], [27.00396, 31.42743], [27.01121, 31.41171], [27.06359, 31.40667], [27.0662, 31.39019], [27.07787, 31.38286], [27.22586, 31.36923], [27.22373, 31.36493], [27.18244, 31.37143], [27.17641, 31.36545], [27.18202, 31.35899], [27.22061, 31.36522], [27.22853, 31.35804], [27.24433, 31.36283], [27.26781, 31.3578], [27.26892, 31.3636], [27.24675, 31.36569], [27.24227, 31.36266], [27.24065, 31.36717], [27.3402, 31.37278], [27.35329, 31.36401], [27.3471, 31.34047], [27.36789, 31.31489], [27.38576, 31.26213], [27.40424, 31.24176], [27.44601, 31.21565], [27.48966, 31.20739], [27.55697, 31.20673], [27.56586, 31.19358], [27.63675, 31.1961], [27.63588, 31.18592], [27.6429, 31.17998], [27.67583, 31.17723], [27.81911, 31.21484], [27.84376, 31.22728], [27.85441, 31.24701], [27.85919, 31.24595], [27.86929, 31.23817], [27.8656, 31.23028], [27.87213, 31.2195], [27.86681, 31.21594], [27.87242, 31.18775], [27.89081, 31.17168], [27.88902, 31.13955], [27.89584, 31.11816], [27.92956, 31.09684], [28.04717, 31.08603], [28.1572, 31.09204], [28.20238, 31.07324], [28.27707, 31.07419], [28.31611, 31.06737], [28.43292, 31.08798], [28.47215, 31.07481], [28.47143, 31.06711], [28.4806, 31.06096], [28.5133, 31.05145], [28.55722, 31.05273], [28.56662, 31.04272], [28.5937, 31.03711], [28.60767, 31.01586], [28.65434, 31.00434], [28.7096, 31.00254], [28.72743, 30.98604], [28.76266, 30.98432], [28.75868, 30.97781], [28.76794, 30.96639], [28.79147, 30.95643], [28.83075, 30.95275], [28.83781, 30.92151], [28.89197, 30.89268], [28.90638, 30.87527], [28.98389, 30.84944], [28.97454, 30.84336], [28.95236, 30.8542], [28.95119, 30.84818], [28.96636, 30.84183], [28.96197, 30.8404], [28.97602, 30.84266], [28.97188, 30.84161], [28.98006, 30.83412], [28.97206, 30.83752], [28.97869, 30.83293], [29.01747, 30.82325], [29.04144, 30.82086], [29.0225, 30.82672], [29.02528, 30.8313], [29.04391, 30.82735], [29.04354, 30.81932], [29.04522, 30.82498], [29.07579, 30.81979], [29.13858, 30.8219], [29.21851, 30.83906], [29.32807, 30.87313], [29.47712, 30.93672], [29.58752, 31.00011], [29.59224, 30.99072]]], [[[29.02281, 30.83246], [29.02741, 30.83882], [29.02057, 30.82753], [28.99067, 30.83427], [28.98035, 30.84272], [29.02281, 30.83246]]]]}}, {"type": "Feature", "properties": {"shapeID": "46179711B64218004276609", "shapeName": "New Valley Governorate"}, "geometry": {"type": "Polygon", "coordinates": [[[32.69682, 25.17703], [32.67243, 25.11014], [31.09815, 22.0], [25.0, 22.0], [25.00019, 27.74891], [30.65417, 27.7299], [30.66047, 27.60322], [30.75648, 27.43293], [30.89778, 27.30109], [31.07896, 27.21861], [31.16512, 27.12443], [31.24556, 26.96777], [31.32544, 26.85263], [31.45444, 26.72466], [31.51846, 26.68221], [31.75281, 26.41716], [31.8112, 26.33642], [31.92994, 26.21351], [32.10374, 26.06606], [32.17918, 26.03652], [32.28934, 26.03652], [32.48519, 26.10157], [32.66573, 26.17574], [32.71877, 26.14095], [32.73815, 26.11714], [32.74019, 26.05943], [32.70857, 25.98427], [32.67695, 25.84298], [32.53415, 25.72449], [32.43621, 25.66609], [32.43213, 25.58792], [32.47497, 25.50141], [32.48517, 25.40839], [32.53413, 25.28763], [32.69682, 25.17703]]]}}, {"type": "Feature", "properties": {"shapeID": "46179711B99776351599397", "shapeName": "Alexandria Governorate"}, "geometry": {"type": "Polygon", "coordinates": [[[29.59224, 30.99072], [29.58752, 31.00011], [29.74792, 31.10747], [29.77627, 31.13043], [29.78544, 31.14771], [29.79814, 31.15372], [29.80569, 31.15556], [29.78521, 31.1453], [29.79769, 31.14408], [29.79394, 31.13438], [29.80019, 31.14262], [29.81204, 31.13376], [29.83121, 31.14298], [29.85298, 31.16002], [29.85087, 31.16579], [29.85403, 31.16161], [29.85638, 31.16907], [29.85995, 31.16482], [29.87103, 31.17384], [29.87686, 31.1831], [29.87124, 31.18737], [29.86991, 31.18239], [29.87084, 31.18969], [29.87989, 31.18437], [29.88156, 31.19343], [29.87615, 31.19361], [29.88185, 31.19764], [29.86945, 31.19936], [29.85685, 31.18523], [29.85083, 31.18665], [29.84637, 31.16546], [29.85084, 31.1871], [29.8765, 31.20597], [29.87616, 31.21126], [29.89138, 31.21447], [29.88401, 31.20626], [29.9003, 31.20218], [29.90745, 31.20976], [29.90442, 31.21366], [29.91639, 31.21242], [29.95878, 31.24092], [29.98684, 31.27024], [30.00932, 31.28036], [30.01205, 31.29044], [30.03506, 31.29372], [30.05009, 31.31898], [30.06941, 31.32942], [30.08541, 31.33231], [30.0726, 31.32712], [30.07599, 31.31873], [30.0673, 31.31787], [30.08125, 31.31017], [30.07115, 31.31076], [30.08763, 31.28216], [30.09312, 31.19667], [30.01559, 31.10852], [29.91425, 30.89588], [29.86884, 30.86926], [29.96188, 30.72751], [29.9353, 30.69847], [29.99067, 30.57935], [29.72542, 30.46486], [29.61742, 30.35968], [29.59224, 30.99072]]]}}, {"type": "Feature", "properties": {"shapeID": "46179711B4202910882635", "shapeName": "Ismailia Governorate"}, "geometry": {"type": "MultiPolygon", "coordinates": [[[[32.62936, 30.51391], [32.64918, 30.47456], [32.74938, 30.35953], [32.78179, 30.25689], [32.53868, 30.25774], [32.5345, 30.26556], [32.52235, 30.26176], [32.46211, 30.27807], [32.44689, 30.2937], [32.44245, 30.31724], [32.44778, 30.33008], [32.44006, 30.35102], [32.41813, 30.36861], [32.41091, 30.36429], [32.41852, 30.35845], [32.41163, 30.36056], [32.36536, 30.41382], [32.33326, 30.58507], [32.35512, 30.69697], [32.32073, 30.80647], [32.31766, 30.87203], [32.3847, 30.87957], [32.53872, 30.96434], [32.59398, 30.947], [32.62936, 30.51391]]], [[[32.31418, 30.87163], [32.31409, 30.78669], [32.32253, 30.74599], [32.33953, 30.72004], [32.34227, 30.70288], [32.32313, 30.61938], [32.3065, 30.58794], [32.26917, 30.58571], [32.29104, 30.56375], [32.29049, 30.55113], [32.30318, 30.5507], [32.29885, 30.55831], [32.33364, 30.51666], [32.35672, 30.4121], [32.35373, 30.41573], [32.34347, 30.40645], [32.31099, 30.40199], [32.30276, 30.36109], [32.30516, 30.33465], [32.34827, 30.28498], [32.4066, 30.27811], [32.4045, 30.27327], [32.42633, 30.258], [32.43134, 30.23819], [32.45031, 30.2314], [32.47129, 30.24135], [32.475, 30.25411], [32.46073, 30.2638], [32.50005, 30.26064], [32.50017, 30.25507], [32.52037, 30.24721], [32.4581, 30.20637], [32.40288, 30.20272], [32.30492, 30.24427], [32.17944, 30.24522], [31.87135, 30.22955], [31.81035, 30.39077], [31.79757, 30.43541], [31.79405, 30.48613], [31.74582, 30.52885], [31.74916, 30.55079], [31.77737, 30.54399], [31.88074, 30.53868], [31.95345, 30.54825], [32.0394, 30.54616], [32.08352, 30.52673], [32.1313, 30.53731], [32.14872, 30.57781], [32.18662, 30.61485], [32.17977, 30.71329], [32.19073, 30.87241], [32.31418, 30.87163]]], [[[32.35081, 30.48435], [32.35477, 30.44798], [32.35049, 30.45801], [32.34524, 30.48383], [32.35081, 30.48435]]], [[[32.35171, 30.69738], [32.34899, 30.68332], [32.34187, 30.68464], [32.34482, 30.71864], [32.35171, 30.69738]]], [[[32.35034, 30.68151], [32.32988, 30.59291], [32.31296, 30.59198], [32.32676, 30.61998], [32.34158, 30.68357], [32.35034, 30.68151]]], [[[32.34448, 30.51464], [32.34969, 30.48506], [32.34509, 30.48452], [32.33897, 30.51348], [32.34448, 30.51464]]], [[[32.32988, 30.59082], [32.34405, 30.51766], [32.34008, 30.51558], [32.3092, 30.55547], [32.30576, 30.57491], [32.31176, 30.59112], [32.32988, 30.59082]]], [[[32.33913, 30.7265], [32.32437, 30.75135], [32.31809, 30.80082], [32.33913, 30.7265]]]]}}, {"type": "Feature", "properties": {"shapeID": "46179711B81451673929301", "shapeName": "Suez Governorate"}, "geometry": {"type": "MultiPolygon", "coordinates": [[[[32.80674, 30.19257], [32.80426, 29.9948], [32.83298, 29.92325], [32.80033, 29.89728], [32.63224, 29.80714], [32.60904, 29.82187], [32.63029, 29.84276], [32.63366, 29.86913], [32.59331, 29.90385], [32.59334, 29.89841], [32.59279, 29.90629], [32.59219, 29.89813], [32.58347, 29.91505], [32.55926, 29.92665], [32.58269, 29.94574], [32.58813, 29.98072], [32.5728, 30.07227], [32.57381, 30.21096], [32.56251, 30.22305], [32.56251, 30.23439], [32.53868, 30.25774], [32.78179, 30.25689], [32.80674, 30.19257]]], [[[32.62925, 29.1245], [32.5771, 29.13716], [32.51723, 29.12619], [32.45929, 29.09497], [32.12035, 28.99874], [31.97111, 28.98949], [31.84454, 29.0106], [31.90628, 29.74831], [31.90901, 29.99151], [31.87135, 30.22955], [32.17944, 30.24522], [32.30492, 30.24427], [32.40288, 30.20272], [32.4581, 30.20637], [32.52037, 30.24721], [32.52504, 30.23753], [32.51681, 30.22474], [32.52928, 30.21586], [32.53556, 30.19663], [32.54486, 30.20184], [32.56003, 30.19888], [32.56663, 30.17195], [32.57028, 30.06105], [32.58386, 29.96315], [32.56234, 29.93356], [32.56188, 29.9352], [32.55957, 29.93369], [32.55657, 29.93644], [32.5653, 29.93861], [32.55893, 29.93827], [32.56239, 29.94321], [32.55523, 29.94048], [32.56686, 29.95118], [32.5585, 29.95932], [32.52788, 29.95401], [32.53195, 29.95026], [32.53641, 29.94253], [32.53998, 29.94033], [32.53598, 29.94246], [32.52495, 29.95489], [32.47653, 29.9365], [32.48164, 29.93206], [32.47599, 29.93433], [32.48039, 29.93253], [32.45962, 29.89123], [32.48004, 29.87465], [32.47415, 29.8754], [32.47924, 29.86193], [32.48616, 29.86641], [32.49977, 29.86062], [32.50939, 29.86468], [32.50974, 29.86032], [32.48616, 29.82251], [32.42204, 29.76926], [32.38632, 29.70903], [32.36271, 29.68213], [32.36085, 29.65659], [32.3703, 29.65029], [32.3491, 29.65543], [32.35616, 29.6405], [32.36049, 29.64513], [32.37195, 29.64377], [32.36586, 29.64374], [32.359, 29.61911], [32.3632, 29.61937], [32.35561, 29.61783], [32.36372, 29.61926], [32.35562, 29.61779], [32.36136, 29.61741], [32.35368, 29.61444], [32.34282, 29.59165], [32.38255, 29.5251], [32.44396, 29.48748], [32.48009, 29.44582], [32.50053, 29.43838], [32.50521, 29.42323], [32.52804, 29.41235], [32.57434, 29.37374], [32.57353, 29.36594], [32.59394, 29.34125], [32.60165, 29.30404], [32.61003, 29.29137], [32.60625, 29.2786], [32.62718, 29.24804], [32.62532, 29.20518], [32.63712, 29.19771], [32.6403, 29.18263], [32.64943, 29.17414], [32.64523, 29.16877], [32.65386, 29.12658], [32.62925, 29.1245]]]]}}, {"type": "Feature", "properties": {"shapeID": "46179711B78983565091897", "shapeName": "Gharbiyya Governorate"}, "geometry": {"type": "Polygon", "coordinates": [[[30.77243, 30.98657], [30.79645, 30.96285], [30.84085, 30.96348], [30.86706, 30.97409], [30.90636, 30.96348], [30.92529, 30.98657], [31.02355, 30.98657], [31.05558, 31.05207], [31.04466, 31.09134], [31.09561, 31.08823], [31.14074, 31.07701], [31.16913, 31.10381], [31.2128, 31.09758], [31.23172, 31.07888], [31.22444, 31.04583], [31.20042, 31.00529], [31.20625, 30.98969], [31.24191, 30.99655], [31.30133, 30.99455], [31.29529, 30.98102], [31.25506, 30.96865], [31.23891, 30.9532], [31.26181, 30.9269], [31.26053, 30.91659], [31.23265, 30.89813], [31.24735, 30.88726], [31.24676, 30.88114], [31.23317, 30.87738], [31.24788, 30.86792], [31.25264, 30.84608], [31.24312, 30.84065], [31.22441, 30.84235], [31.21668, 30.83271], [31.23679, 30.78369], [31.22577, 30.7554], [31.25377, 30.73454], [31.25076, 30.71496], [31.26993, 30.69239], [31.27618, 30.66557], [31.25839, 30.58079], [31.24655, 30.57462], [31.20115, 30.5845], [31.16767, 30.61582], [31.13128, 30.63273], [31.07232, 30.63587], [31.05485, 30.6653], [30.99007, 30.6678], [30.94203, 30.70035], [30.89035, 30.70223], [30.86487, 30.68157], [30.80351, 30.67872], [30.76217, 30.72074], [30.7882, 30.73234], [30.79594, 30.75252], [30.78123, 30.76459], [30.76069, 30.75829], [30.75423, 30.7678], [30.75666, 30.77764], [30.81216, 30.81963], [30.79467, 30.82842], [30.76972, 30.81805], [30.76262, 30.8225], [30.78751, 30.84226], [30.79444, 30.85679], [30.78889, 30.87043], [30.75584, 30.88416], [30.77836, 30.91243], [30.78392, 30.93133], [30.74716, 30.96854], [30.76135, 30.98704], [30.77243, 30.98657]]]}}, {"type": "Feature", "properties": {"shapeID": "46179711B43356691250297", "shapeName": "Faiyum Governorate"}, "geometry": {"type": "Polygon", "coordinates": [[[30.56335, 29.62637], [30.69677, 29.69972], [31.02352, 29.71627], [31.12239, 29.43587], [31.11337, 29.39177], [31.00174, 29.2897], [30.99629, 29.22319], [30.87648, 29.21131], [30.87104, 29.12096], [30.44354, 28.97337], [30.30195, 28.96146], [30.29923, 29.02576], [30.07323, 29.02576], [29.84995, 29.09241], [30.56335, 29.62637]]]}}, {"type": "Feature", "properties": {"shapeID": "46179711B35449682454923", "shapeName": "Beni Suef Governorate"}, "geometry": {"type": "Polygon", "coordinates": [[[31.96155, 28.93931], [31.92468, 28.8604], [31.91648, 28.81614], [31.85776, 28.72995], [31.8564, 28.68324], [31.87278, 28.62332], [31.78811, 28.53697], [31.8045, 28.42774], [31.89054, 28.31239], [31.90692, 28.2691], [31.65316, 28.27847], [31.43752, 28.32424], [31.29312, 28.39032], [31.22143, 28.43573], [31.03704, 28.7184], [30.88583, 28.72685], [30.81163, 28.76564], [29.8382, 28.78235], [29.77965, 28.80263], [29.84995, 29.09241], [30.07323, 29.02576], [30.29923, 29.02576], [30.30195, 28.96146], [30.44354, 28.97337], [30.87104, 29.12096], [30.87648, 29.21131], [30.99629, 29.22319], [31.00174, 29.2897], [31.11337, 29.39177], [31.12239, 29.43587], [31.21175, 29.43616], [31.23507, 29.36736], [31.22114, 29.32165], [31.20295, 29.3066], [31.23096, 29.2522], [31.21218, 29.18663], [31.46566, 29.10823], [31.81415, 29.01566], [31.97111, 28.98949], [31.96155, 28.93931]]]}}, {"type": "Feature", "properties": {"shapeID": "46179711B7819508184782", "shapeName": "Minya Governate"}, "geometry": {"type": "Polygon", "coordinates": [[[32.04076, 28.27872], [32.20463, 28.3208], [32.26609, 28.3208], [32.32071, 28.30277], [32.40675, 28.25947], [32.50098, 28.16561], [32.57472, 28.07768], [32.65393, 27.90283], [32.4193, 27.90976], [32.37301, 27.89533], [32.11706, 27.84959], [31.63511, 27.6954], [31.1232, 27.66647], [30.88359, 27.66647], [30.81824, 27.61822], [30.71204, 27.62305], [30.6712, 27.64235], [30.6712, 27.70263], [30.65417, 27.7299], [28.62506, 27.74033], [28.82256, 27.97983], [29.23916, 28.13121], [29.58497, 28.34471], [29.75923, 28.64862], [29.77965, 28.80263], [29.8382, 28.78235], [30.81163, 28.76564], [30.88583, 28.72685], [31.03704, 28.7184], [31.22143, 28.43573], [31.29312, 28.39032], [31.43752, 28.32424], [31.65316, 28.27847], [31.90692, 28.2691], [32.04076, 28.27872]]]}}, {"type": "Feature", "properties": {"shapeID": "46179711B93993738941206", "shapeName": "Asyut Governorate"}, "geometry": {"type": "Polygon", "coordinates": [[[32.6949, 27.79657], [32.75362, 27.55712], [32.74406, 27.50141], [32.67305, 27.36566], [32.61535, 27.37428], [32.25048, 27.04737], [32.16062, 26.9843], [31.89923, 27.05707], [31.41727, 26.96974], [31.2963, 26.89307], [31.24556, 26.96777], [31.16512, 27.12443], [31.07896, 27.21861], [30.89778, 27.30109], [30.75648, 27.43293], [30.66047, 27.60322], [30.65417, 27.7299], [30.6712, 27.70263], [30.6712, 27.64235], [30.71204, 27.62305], [30.81824, 27.61822], [30.88359, 27.66647], [31.1232, 27.66647], [31.63511, 27.6954], [32.11706, 27.84959], [32.37301, 27.89533], [32.4193, 27.90976], [32.65393, 27.90283], [32.6949, 27.79657]]]}}, {"type": "Feature", "properties": {"shapeID": "46179711B46271687964482", "shapeName": "Sohag Governorate"}, "geometry": {"type": "Polygon", "coordinates": [[[32.66759, 27.31835], [32.79322, 26.96714], [32.79869, 26.80027], [32.28401, 26.19181], [32.14786, 26.28889], [31.92994, 26.21351], [31.8112, 26.33642], [31.75281, 26.41716], [31.51846, 26.68221], [31.45444, 26.72466], [31.32544, 26.85263], [31.2963, 26.89307], [31.41727, 26.96974], [31.89923, 27.05707], [32.16062, 26.9843], [32.25048, 27.04737], [32.61535, 27.37428], [32.67305, 27.36566], [32.66759, 27.31835]]]}}, {"type": "Feature", "properties": {"shapeID": "46179711B60822011452178", "shapeName": "Qena Governorate"}, "geometry": {"type": "Polygon", "coordinates": [[[32.6851, 25.33695], [32.67314, 25.27114], [32.64732, 25.21014], [32.53413, 25.28763], [32.48517, 25.40839], [32.56007, 25.43044], [32.81673, 25.59036], [32.96795, 25.80664], [32.95916, 25.9846], [32.70857, 25.98427], [32.74019, 26.05943], [32.73815, 26.11714], [32.71877, 26.14095], [32.66573, 26.17574], [32.48519, 26.10157], [32.28934, 26.03652], [32.17918, 26.03652], [32.10374, 26.06606], [31.92994, 26.21351], [32.14786, 26.28889], [32.28401, 26.19181], [32.79869, 26.80027], [32.85331, 26.79783], [32.94208, 26.7454], [33.21794, 26.49635], [33.34358, 26.544], [33.56617, 26.08741], [33.56344, 26.03834], [33.42688, 25.87503], [33.35314, 25.72134], [33.36269, 25.65735], [33.39137, 25.62288], [33.46777, 25.56188], [33.46913, 25.33621], [32.6851, 25.33695]]]}}, {"type": "Feature", "properties": {"shapeID": "46179711B25362750888095", "shapeName": "Luxor Governate"}, "geometry": {"type": "Polygon", "coordinates": [[[32.47497, 25.50141], [32.43213, 25.58792], [32.43621, 25.66609], [32.53415, 25.72449], [32.67695, 25.84298], [32.70857, 25.98427], [32.95916, 25.9846], [32.96795, 25.80664], [32.81673, 25.59036], [32.56007, 25.43044], [32.48517, 25.40839], [32.47497, 25.50141]]]}}, {"type": "Feature", "properties": {"shapeID": "46179711B67626682469511", "shapeName": "Giza Governorate"}, "geometry": {"type": "Polygon", "coordinates": [[[27.78564, 28.63545], [28.72927, 28.81966], [29.57035, 29.55596], [30.31119, 29.92029], [30.78658, 30.27323], [30.83586, 30.32615], [30.84916, 30.32455], [30.87427, 30.34009], [30.91581, 30.33428], [30.921, 30.30909], [30.91441, 30.28506], [30.95509, 30.28286], [30.9652, 30.26407], [30.96852, 30.23329], [30.99059, 30.20676], [31.01381, 30.19714], [31.05214, 30.2189], [31.06857, 30.21903], [31.1424, 30.17094], [31.16527, 30.14307], [31.21135, 30.12366], [31.23117, 30.09304], [31.22453, 30.07192], [31.23019, 30.04477], [31.22115, 30.0295], [31.22779, 29.98366], [31.23607, 29.96375], [31.27104, 29.94242], [31.284, 29.91212], [31.28193, 29.88539], [31.29238, 29.85744], [31.2962, 29.80301], [31.28672, 29.76595], [31.32999, 29.75314], [31.46426, 29.75334], [31.52961, 29.76397], [31.73179, 29.76929], [31.7985, 29.75334], [31.90628, 29.74831], [31.84454, 29.0106], [31.46566, 29.10823], [31.21218, 29.18663], [31.23096, 29.2522], [31.20295, 29.3066], [31.22114, 29.32165], [31.23507, 29.36736], [31.21175, 29.43616], [31.12239, 29.43587], [31.02352, 29.71627], [30.69677, 29.69972], [30.56335, 29.62637], [29.84995, 29.09241], [29.77965, 28.80263], [29.75923, 28.64862], [29.58497, 28.34471], [29.23916, 28.13121], [28.82256, 27.97983], [28.62506, 27.74033], [27.31059, 27.738], [27.78564, 28.63545]]]}}, {"type": "Feature", "properties": {"shapeID": "46179711B49513585270152", "shapeName": "Monufia Governorate"}, "geometry": {"type": "Polygon", "coordinates": [[[30.86487, 30.68157], [30.89035, 30.70223], [30.94203, 30.70035], [30.99007, 30.6678], [31.05485, 30.6653], [31.07232, 30.63587], [31.13128, 30.63273], [31.16767, 30.61582], [31.20115, 30.5845], [31.24655, 30.57462], [31.24193, 30.56368], [31.25759, 30.54836], [31.25599, 30.54196], [31.22405, 30.54782], [31.22338, 30.51365], [31.18246, 30.487], [31.17403, 30.45503], [31.12581, 30.43866], [31.13428, 30.42024], [31.13118, 30.39954], [31.12095, 30.39674], [31.10896, 30.41986], [31.09696, 30.42163], [31.09472, 30.41322], [31.11186, 30.39522], [31.09467, 30.3642], [31.08643, 30.36293], [31.06586, 30.37622], [31.05485, 30.36932], [31.08355, 30.33425], [31.10714, 30.3229], [31.10569, 30.30722], [31.08893, 30.28206], [31.11641, 30.26638], [31.10474, 30.23878], [31.11257, 30.21413], [31.1424, 30.17094], [31.06857, 30.21903], [31.05214, 30.2189], [31.01381, 30.19714], [30.99059, 30.20676], [30.96852, 30.23329], [30.9652, 30.26407], [30.95509, 30.28286], [30.91441, 30.28506], [30.921, 30.30909], [30.91581, 30.33428], [30.87427, 30.34009], [30.84916, 30.32455], [30.83586, 30.32615], [30.78658, 30.27323], [30.72899, 30.23054], [30.70987, 30.23341], [30.53448, 30.32203], [30.48585, 30.33924], [30.51944, 30.46507], [30.55058, 30.4913], [30.65134, 30.48919], [30.65938, 30.4726], [30.61845, 30.44215], [30.69017, 30.39418], [30.74685, 30.46054], [30.81612, 30.46446], [30.83822, 30.4755], [30.82997, 30.50235], [30.85153, 30.54015], [30.84358, 30.54614], [30.81967, 30.54274], [30.81321, 30.55221], [30.81488, 30.56284], [30.83664, 30.58438], [30.81833, 30.58416], [30.81174, 30.59027], [30.78718, 30.64593], [30.80351, 30.67872], [30.86487, 30.68157]]]}}, {"type": "Feature", "properties": {"shapeID": "46179711B92366752825200", "shapeName": "Beheira Governorate"}, "geometry": {"type": "Polygon", "coordinates": [[[29.61687, 30.26265], [29.61742, 30.35968], [29.72542, 30.46486], [29.99067, 30.57935], [29.9353, 30.69847], [29.96188, 30.72751], [29.86884, 30.86926], [29.91425, 30.89588], [30.01559, 31.10852], [30.09312, 31.19667], [30.08763, 31.28216], [30.12425, 31.27114], [30.17727, 31.27404], [30.17683, 31.26956], [30.17935, 31.26793], [30.17787, 31.27089], [30.17804, 31.27445], [30.17881, 31.27571], [30.18124, 31.27032], [30.17973, 31.27514], [30.2052, 31.27817], [30.26238, 31.30603], [30.29928, 31.33576], [30.29734, 31.34245], [30.30063, 31.34686], [30.29985, 31.33842], [30.308, 31.34581], [30.3571, 31.4391], [30.3627, 31.46687], [30.38601, 31.4435], [30.42583, 31.43306], [30.43, 31.41258], [30.42133, 31.38095], [30.44668, 31.37588], [30.46042, 31.3365], [30.4845, 31.34749], [30.51951, 31.32842], [30.51902, 31.27052], [30.49659, 31.23977], [30.50293, 31.22935], [30.52575, 31.22751], [30.52048, 31.20158], [30.53793, 31.18999], [30.55685, 31.20175], [30.57371, 31.19566], [30.60735, 31.17272], [30.62139, 31.1436], [30.65785, 31.10955], [30.72366, 31.06672], [30.71859, 31.0237], [30.73029, 31.01209], [30.75262, 31.0044], [30.76135, 30.98704], [30.74716, 30.96854], [30.78392, 30.93133], [30.77836, 30.91243], [30.75584, 30.88416], [30.78889, 30.87043], [30.79444, 30.85679], [30.78751, 30.84226], [30.76262, 30.8225], [30.76972, 30.81805], [30.79467, 30.82842], [30.81216, 30.81963], [30.75666, 30.77764], [30.75423, 30.7678], [30.76069, 30.75829], [30.78123, 30.76459], [30.79728, 30.7495], [30.7882, 30.73234], [30.76217, 30.72074], [30.80355, 30.68312], [30.78718, 30.64593], [30.80445, 30.6036], [30.81833, 30.58416], [30.83664, 30.58438], [30.81488, 30.56284], [30.81737, 30.54373], [30.84358, 30.54614], [30.85153, 30.54015], [30.82997, 30.50235], [30.83822, 30.4755], [30.81612, 30.46446], [30.74685, 30.46054], [30.69017, 30.39418], [30.61845, 30.44215], [30.65938, 30.4726], [30.65134, 30.48919], [30.55058, 30.4913], [30.51944, 30.46507], [30.48585, 30.33924], [30.53448, 30.32203], [30.70987, 30.23341], [30.72899, 30.23054], [30.31119, 29.92029], [29.61687, 30.26265]]]}}, {"type": "Feature", "properties": {"shapeID": "46179711B66630674459803", "shapeName": "Cairo Governorate"}, "geometry": {"type": "Polygon", "coordinates": [[[31.87135, 30.22955], [31.90901, 29.99151], [31.90628, 29.74831], [31.7985, 29.75334], [31.73179, 29.76929], [31.52961, 29.76397], [31.46426, 29.75334], [31.32999, 29.75314], [31.28672, 29.76595], [31.2962, 29.80301], [31.29238, 29.85744], [31.28193, 29.88539], [31.284, 29.91212], [31.27104, 29.94242], [31.23607, 29.96375], [31.22082, 30.01422], [31.22115, 30.0295], [31.23019, 30.04477], [31.22453, 30.07192], [31.23117, 30.09304], [31.30752, 30.13118], [31.39376, 30.15534], [31.59247, 30.17213], [31.83679, 30.32092], [31.87135, 30.22955]]]}}, {"type": "Feature", "properties": {"shapeID": "46179711B47059775380229", "shapeName": "Qalyubia Governorate"}, "geometry": {"type": "Polygon", "coordinates": [[[31.21135, 30.12366], [31.16527, 30.14307], [31.11257, 30.21413], [31.10474, 30.23878], [31.11641, 30.26638], [31.08893, 30.28206], [31.10569, 30.30722], [31.10714, 30.3229], [31.08355, 30.33425], [31.05485, 30.36932], [31.06586, 30.37622], [31.08643, 30.36293], [31.09467, 30.3642], [31.11186, 30.39522], [31.09472, 30.41322], [31.09696, 30.42163], [31.10896, 30.41986], [31.12095, 30.39674], [31.13118, 30.39954], [31.13428, 30.42024], [31.12581, 30.43866], [31.17403, 30.45503], [31.18246, 30.487], [31.22338, 30.51365], [31.22405, 30.54782], [31.25599, 30.54196], [31.25759, 30.54836], [31.24193, 30.56368], [31.24655, 30.57462], [31.2724, 30.57459], [31.29457, 30.55819], [31.3533, 30.56841], [31.35767, 30.55819], [31.32394, 30.52698], [31.27896, 30.43815], [31.35892, 30.35463], [31.35761, 30.31946], [31.3779, 30.28883], [31.40963, 30.28848], [31.51473, 30.23745], [31.63012, 30.19797], [31.59247, 30.17213], [31.39376, 30.15534], [31.30752, 30.13118], [31.23117, 30.09304], [31.21135, 30.12366]]]}}, {"type": "Feature", "properties": {"shapeID": "46179711B98212466425872", "shapeName": "Dakahlia Governorate"}, "geometry": {"type": "MultiPolygon", "coordinates": [[[[31.26235, 30.58797], [31.26153, 30.60989], [31.27677, 30.6494], [31.27618, 30.66557], [31.26993, 30.69239], [31.25076, 30.71496], [31.25377, 30.73454], [31.22577, 30.7554], [31.23679, 30.78369], [31.21668, 30.83271], [31.22441, 30.84235], [31.24312, 30.84065], [31.25264, 30.84608], [31.24788, 30.86792], [31.23317, 30.87738], [31.24676, 30.88114], [31.24735, 30.88726], [31.23265, 30.89813], [31.26053, 30.91659], [31.26181, 30.9269], [31.23891, 30.9532], [31.25506, 30.96865], [31.29529, 30.98102], [31.30133, 30.99455], [31.24191, 30.99655], [31.20625, 30.98969], [31.20042, 31.00529], [31.22444, 31.04583], [31.23172, 31.07888], [31.30485, 31.11176], [31.2778, 31.15118], [31.29827, 31.18996], [31.27926, 31.39795], [31.33701, 31.37299], [31.36405, 31.42415], [31.37857, 31.51597], [31.44901, 31.48002], [31.52365, 31.45126], [31.56985, 31.4424], [31.61416, 31.44837], [31.58002, 31.37434], [31.49087, 31.29271], [31.6475, 31.22498], [31.63881, 31.19117], [31.61275, 31.17817], [31.61015, 31.12502], [31.61796, 31.10531], [31.70175, 31.15099], [31.75868, 31.16219], [31.79473, 31.19489], [31.95764, 31.48935], [31.97543, 31.45019], [31.97907, 31.45973], [31.98, 31.44354], [32.01025, 31.40469], [32.07274, 31.3599], [32.20108, 31.29277], [32.05457, 31.07236], [32.0296, 31.06033], [31.8913, 31.03027], [31.7901, 31.01639], [31.72129, 30.94004], [31.6997, 30.89027], [31.64801, 30.86714], [31.64532, 30.81211], [31.58932, 30.7785], [31.4834, 30.7756], [31.39974, 30.76053], [31.3849, 30.72806], [31.40177, 30.648], [31.38506, 30.61856], [31.39555, 30.59105], [31.39102, 30.58366], [31.3533, 30.56841], [31.29457, 30.55819], [31.2724, 30.57459], [31.24655, 30.57462], [31.26235, 30.58797]]], [[[31.97969, 31.48519], [31.99754, 31.46641], [32.00369, 31.45127], [31.9997, 31.44375], [31.99726, 31.46476], [31.99229, 31.45134], [31.99481, 31.46086], [31.99262, 31.45709], [31.98712, 31.47647], [31.96057, 31.49463], [31.97969, 31.48519]]]]}}, {"type": "Feature", "properties": {"shapeID": "46179711B66765744751824", "shapeName": "Damietta Governorate"}, "geometry": {"type": "Polygon", "coordinates": [[[31.79473, 31.19489], [31.75868, 31.16219], [31.70175, 31.15099], [31.61796, 31.10531], [31.61015, 31.12502], [31.61275, 31.17817], [31.63881, 31.19117], [31.6475, 31.22498], [31.49087, 31.29271], [31.58002, 31.37434], [31.61416, 31.44837], [31.75358, 31.48292], [31.75026, 31.46367], [31.77023, 31.45117], [31.76553, 31.45942], [31.77293, 31.46276], [31.75796, 31.47574], [31.76419, 31.48501], [31.80714, 31.50282], [31.84376, 31.52779], [31.86647, 31.51978], [31.93477, 31.51763], [31.95984, 31.50227], [31.96057, 31.49463], [31.95142, 31.50297], [31.95764, 31.48935], [31.79473, 31.19489]]]}}, {"type": "Feature", "properties": {"shapeID": "46179711B94393740490008", "shapeName": "Kafr el-Sheikh Governorate"}, "geometry": {"type": "Polygon", "coordinates": [[[31.2128, 31.09758], [31.16913, 31.10381], [31.14074, 31.07701], [31.09561, 31.08823], [31.04466, 31.09134], [31.05558, 31.05207], [31.02355, 30.98657], [30.92529, 30.98657], [30.90636, 30.96348], [30.86706, 30.97409], [30.84085, 30.96348], [30.79645, 30.96285], [30.77243, 30.98657], [30.76135, 30.98704], [30.75262, 31.0044], [30.72571, 31.0151], [30.71859, 31.0237], [30.72366, 31.06672], [30.65785, 31.10955], [30.62139, 31.1436], [30.60735, 31.17272], [30.56562, 31.20091], [30.53793, 31.18999], [30.52048, 31.20158], [30.52575, 31.22751], [30.50293, 31.22935], [30.49659, 31.23977], [30.51902, 31.27052], [30.51951, 31.32842], [30.4845, 31.34749], [30.46042, 31.3365], [30.44668, 31.37588], [30.42133, 31.38095], [30.43, 31.41258], [30.42583, 31.43306], [30.38601, 31.4435], [30.36804, 31.47073], [30.39227, 31.48278], [30.39355, 31.47764], [30.43584, 31.46592], [30.44391, 31.4583], [30.50333, 31.45424], [30.54683, 31.46156], [30.9371, 31.57157], [30.96884, 31.58644], [30.96508, 31.57878], [30.96965, 31.58535], [30.97053, 31.58006], [30.97908, 31.57762], [30.97072, 31.58427], [31.05934, 31.6003], [31.13184, 31.59843], [31.13933, 31.59167], [31.23311, 31.57141], [31.33008, 31.53878], [31.37857, 31.51597], [31.36405, 31.42415], [31.33701, 31.37299], [31.27926, 31.39795], [31.29827, 31.18996], [31.2778, 31.15118], [31.30485, 31.11176], [31.23172, 31.07888], [31.2128, 31.09758]]]}}, {"type": "Feature", "properties": {"shapeID": "46179711B71025405794943", "shapeName": "Port Said Governorate"}, "geometry": {"type": "MultiPolygon", "coordinates": [[[[32.57354, 31.05256], [32.59398, 30.947], [32.53872, 30.96434], [32.3847, 30.87957], [32.31766, 30.87203], [32.31025, 31.0948], [32.33717, 31.18742], [32.35107, 31.19454], [32.35993, 31.22716], [32.43753, 31.18801], [32.465, 31.16642], [32.50367, 31.12534], [32.4954, 31.12143], [32.48669, 31.13162], [32.47969, 31.13045], [32.49045, 31.11985], [32.48249, 31.11284], [32.50288, 31.11367], [32.49768, 31.12166], [32.50516, 31.12353], [32.50912, 31.11162], [32.57797, 31.06576], [32.57354, 31.05256]]], [[[32.35607, 31.2313], [32.34805, 31.20173], [32.34138, 31.19827], [32.34979, 31.23286], [32.35607, 31.2313]]], [[[32.32574, 31.25313], [32.34213, 31.24263], [32.34449, 31.23302], [32.33346, 31.19387], [32.30913, 31.19437], [32.30686, 31.22037], [32.31209, 31.22463], [32.3068, 31.22171], [32.30658, 31.22955], [32.30842, 31.24233], [32.31429, 31.23996], [32.30805, 31.24724], [32.31769, 31.25966], [32.32324, 31.2546], [32.31827, 31.26126], [32.3255, 31.25988], [32.32931, 31.27543], [32.32574, 31.25313]]], [[[32.19073, 30.87241], [32.21729, 30.89874], [32.22554, 30.92893], [32.21469, 30.96059], [32.19623, 30.98833], [32.18906, 31.02686], [32.10628, 31.01989], [32.03358, 31.06224], [32.05457, 31.07236], [32.20248, 31.29233], [32.21725, 31.28526], [32.32028, 31.27318], [32.34283, 31.29993], [32.30846, 31.25641], [32.29954, 31.25481], [32.30434, 31.2522], [32.31418, 30.87163], [32.19073, 30.87241]]], [[[32.3323, 31.19104], [32.30965, 31.11383], [32.30692, 31.19231], [32.3323, 31.19104]]]]}}, {"type": "Feature", "properties": {"shapeID": "46179711B99510320348427", "shapeName": "Al Sharqia Governorate"}, "geometry": {"type": "Polygon", "coordinates": [[[32.17977, 30.71329], [32.18662, 30.61485], [32.14872, 30.57781], [32.1313, 30.53731], [32.08352, 30.52673], [32.0394, 30.54616], [31.95345, 30.54825], [31.88074, 30.53868], [31.77737, 30.54399], [31.74916, 30.55079], [31.74582, 30.52885], [31.79405, 30.48613], [31.79757, 30.43541], [31.83679, 30.32092], [31.63012, 30.19797], [31.51473, 30.23745], [31.40963, 30.28848], [31.3779, 30.28883], [31.35761, 30.31946], [31.35892, 30.35463], [31.27896, 30.43815], [31.32394, 30.52698], [31.35767, 30.55819], [31.3533, 30.56841], [31.38244, 30.57852], [31.39555, 30.59105], [31.38506, 30.61856], [31.40177, 30.648], [31.3849, 30.72806], [31.39974, 30.76053], [31.4834, 30.7756], [31.58932, 30.7785], [31.64532, 30.81211], [31.64801, 30.86714], [31.6997, 30.89027], [31.72129, 30.94004], [31.7901, 31.01639], [31.8913, 31.03027], [32.03358, 31.06224], [32.10628, 31.01989], [32.18906, 31.02686], [32.19623, 30.98833], [32.21469, 30.96059], [32.22554, 30.92893], [32.21729, 30.89874], [32.19073, 30.87241], [32.17977, 30.71329]]]}}]}